OBJECT_NAME,OBJECT_ID,EPOCH,MEAN_MOTION,ECCENTRICITY,INCLINATION,RA_OF_ASC_NODE,ARG_OF_PERICENTER,MEAN_ANOMALY,EPHEMERIS_TYPE,CLASSIFICATION_TYPE,NORAD_CAT_ID,ELEMENT_SET_NO,REV_AT_EPOCH,BSTAR,MEAN_MOTION_DOT,MEAN_MOTION_DDOT
KUZGTU 1 (RS47S),2023-091AV,2026-06-06T23:03:15.145344,15.29624374,.00122927,97.5063,222.3382,129.4233,230.8097,0,U,57217,999,16281,.46083619E-3,.1319E-3,0
SONATE-2,2024-043Q,2026-06-06T16:06:58.345632,15.57931629,.00065788,97.5528,307.4303,232.3278,127.7381,0,U,59112,999,12625,.61269196E-3,.45896E-3,0
MESAT1,2024-125G,2026-06-06T20:39:01.241856,15.62093055,.00085627,97.2307,15.1151,245.2097,114.8271,0,U,60209,999,10795,.67870469E-3,.59715E-3,0
OOV-CUBE (TUBSAT-30),2024-128F,2026-06-06T20:59:48.359328,15.02728483,.00459198,61.9952,261.5303,131.4461,229.0588,0,U,60240,999,10456,.22098619E-3,.2819E-4,0
COLIBRI-S (RS67S),2024-199M,2026-06-06T21:50:12.031872,15.47298396,.00067939,97.3006,31.6729,326.9834,33.0991,0,U,61746,999,13582,.46787193E-3,.23832E-3,0
HORS 3 (RS81S),2024-199U,2026-06-06T22:04:08.307840,15.54264275,.00045574,97.2989,33.5606,336.8522,23.2526,0,U,61753,999,13596,.62135853E-3,.40616E-3,0
HORS 4 (RS82S),2024-199V,2026-06-06T21:50:50.198208,15.58722219,.00033583,97.2935,34.6882,327.6993,32.4057,0,U,61754,999,13604,.64951705E-3,.50119E-3,0
ARCTICSAT 1 (RS74S),2024-199AD,2026-06-06T21:57:46.774080,16.05536241,.00070471,97.2845,41.3383,201.6469,158.4516,0,U,61762,999,13647,.13179394E-2,.920149E-2,.45086836E-3
SIT-2086,2024-199AF,2026-06-06T22:47:39.696000,15.52375428,.00046458,97.2946,34.1034,308.6843,51.3994,0,U,61764,999,13284,.65893782E-3,.40238E-3,0
HYPERVIEW 1G (RS66S),2024-199AP,2026-06-06T22:58:50.066688,15.73232026,.0002089,97.2892,37.1789,297.7200,62.3852,0,U,61772,999,13306,.10342217E-2,.144151E-2,0
ALTAIR (RS65S),2024-199AW,2026-06-06T22:55:38.428896,15.36819972,.00121862,97.3040,27.3743,351.4866,8.6170,0,U,61779,999,13554,.36217017E-3,.1299E-3,0
ASRTU-1 (AO-123),2024-199AY,2026-06-06T22:25:30.129600,15.35527175,.00134023,97.3012,26.6979,353.4670,6.6397,0,U,61781,999,13235,.25636236E-3,.8797E-4,0
SAMSAT-IONOSPHERE (RS75S),2024-199BB,2026-06-06T21:44:52.718208,15.56725601,.00064387,97.2957,33.5579,329.7118,30.3764,0,U,61784,999,13596,.67774667E-3,.48568E-3,0
RTU MIREA 1 (RS51S),2024-199BC,2026-06-06T22:51:51.145056,15.59974386,.00059424,97.2948,34.3860,323.9583,36.1272,0,U,61785,999,13287,.77678026E-3,.62998E-3,0
TEVEL2-4,2025-052D,2026-06-06T16:23:23.360928,15.34240261,.00042909,97.3916,54.0604,122.6976,237.4682,0,U,63213,999,6850,.66366658E-3,.21961E-3,0
TEVEL2-5,2025-052E,2026-06-06T23:06:56.926368,15.34083480,.00043019,97.3910,54.2903,124.6483,235.5166,0,U,63214,999,6854,.6075362E-3,.19993E-3,0
TEVEL2-6,2025-052F,2026-06-06T15:34:42.332448,15.34033267,.00043496,97.3912,53.9608,124.5503,235.6151,0,U,63215,999,6849,.66393419E-3,.21827E-3,0
TEVEL2-1,2025-052H,2026-06-06T16:11:18.216960,15.33515217,.00040989,97.3884,53.6229,133.6962,226.4621,0,U,63217,999,6848,.66584155E-3,.21533E-3,0
TEVEL2-3,2025-052J,2026-06-06T16:04:07.369536,15.33568561,.00041845,97.3885,53.6386,134.1860,225.9727,0,U,63218,999,6848,.68009792E-3,.22034E-3,0
TEVEL2-2,2025-052K,2026-06-06T16:11:50.196192,15.33523314,.00040826,97.3886,53.6255,135.2469,224.9104,0,U,63219,999,6848,.67116981E-3,.21712E-3,0
TEVEL2-9,2025-052AD,2026-06-06T23:10:19.102368,15.31584398,.00067512,97.3947,53.3128,159.7862,200.3648,0,U,63237,999,6846,.62312336E-3,.18966E-3,0
TEVEL2-7,2025-052AE,2026-06-06T16:15:56.634048,15.31287238,.00068216,97.3947,52.9464,161.8980,198.2506,0,U,63238,999,6841,.62791221E-3,.18936E-3,0
TEVEL2-8,2025-052AF,2026-06-06T22:44:04.082208,15.31279779,.00068362,97.3945,53.1926,161.4013,198.7479,0,U,63239,999,6845,.611007E-3,.18419E-3,0
INNOSAT 16 (RS92S7),2025-155C,2026-06-06T23:10:15.629952,15.25349113,.00093735,97.4560,125.1272,212.7366,147.3292,0,U,64878,999,7911,.26045489E-3,.6502E-4,0
GEOSCAN 6 (RS92S6),2025-155D,2026-06-06T21:56:00.767328,15.29958853,.00069685,97.4555,126.4279,197.7794,162.3203,0,U,64879,999,7919,.40933218E-3,.11809E-3,0
GEOSCAN 1 (RS92S1),2025-155E,2026-06-06T22:05:12.960960,15.30539298,.00069105,97.4551,126.5735,197.7317,162.3684,0,U,64880,999,7920,.43720504E-3,.12849E-3,0
239ALFEROV (RS61S),2025-155F,2026-06-06T21:42:19.018656,15.32665638,.00065652,97.4553,127.0848,194.0220,166.0841,0,U,64881,999,7923,.52259438E-3,.16433E-3,0
GEOSCAN 2 (RS92S2),2025-155Q,2026-06-06T21:58:44.437440,15.30811245,.00067795,97.4550,126.7173,182.3043,177.8167,0,U,64890,999,7921,.42081189E-3,.12468E-3,0
GEOSCAN 5 (RS92S5),2025-155R,2026-06-06T23:03:34.808256,15.32985660,.00052281,97.4544,127.2754,196.8676,163.2393,0,U,64891,999,7925,.49421774E-3,.15688E-3,0
GEOSCAN 4 (RS92S4),2025-155S,2026-06-06T22:42:16.013088,15.33133854,.00052823,97.4548,127.3060,197.5552,162.5509,0,U,64892,999,7925,.5189285E-3,.16556E-3,0
